TDRS 3                  
1 19548U 88091B   26184.78479036 -.00000290  00000+0  00000+0 0  9998
2 19548  12.5892 340.8876 0036999 356.3922 178.1318  1.00267797125554
FLTSATCOM 8 (USA 46)    
1 20253U 89077A   26184.86542682 -.00000359  00000+0  00000+0 0  9991
2 20253  12.4167 351.0631 0003751  62.8801 305.2212  1.00268848260735
SKYNET 4C               
1 20776U 90079A   26184.98842789  .00000000  00000+0  00000+0 0  9991
2 20776  13.3328 349.7038 0003349 129.7984  57.7942  0.98576530   206
TDRS 5                  
1 21639U 91054B   26185.18895676  .00000091  00000+0  00000+0 0  9990
2 21639  14.0688 353.6484 0006737 257.6174 291.2990  1.00270012127889
TDRS 6                  
1 22314U 93003B   26185.19372596 -.00000289  00000+0  00000+0 0  9999
2 22314  14.1830 356.9318 0008851 180.2345 128.7025  1.00265147122579
UFO 2 (USA 95)          
1 22787U 93056A   26185.15659709  .00000133  00000+0  00000+0 0  9998
2 22787  11.9006   3.4606 0004131   9.3393 354.4337  1.00276768118725
USA 99 (MILSTAR-1 1)    
1 22988U 94009A   26185.06193735 -.00000034  00000+0  00000+0 0  9993
2 22988  17.6503  27.5285 0001247 182.8384   4.8598  0.98720963 33116
UFO 4 (USA 108)         
1 23467U 95003A   26184.82850992 -.00000014  00000+0  00000+0 0  9997
2 23467   9.6808  13.0779 0003000  86.1115 293.1604  1.00274325115126
TDRS 7                  
1 23613U 95035B   26184.95462773 -.00000233  00000+0  00000+0 0  9998
2 23613  13.3701 348.0741 0011705  83.3172 283.3830  1.00276871113427
USA 115 (MILSTAR-1 2)   
1 23712U 95060A   26184.99050791 -.00000195  00000+0  00000+0 0  9990
2 23712  14.0779   3.6164 0006430 117.3704  67.5760  1.00272778 33057
INMARSAT 3-F1           
1 23839U 96020A   26185.19977796  .00000000  00000+0  00000+0 0  9997
2 23839  10.6356  46.4766 0004053  75.3170 119.1638  0.99978382110428
INMARSAT 3-F2           
1 24307U 96053A   26184.91846178 -.00000339  00000+0  00000+0 0  9998
2 24307   9.8939  53.7648 0006433  44.5009 287.3311  0.99997258109088
INMARSAT 3-F3           
1 24674U 96070A   26184.79954300  .00000108  00000+0  00000+0 0  9990
2 24674  10.3533  49.4928 0003337  59.1293 126.4527  0.99990411108076
USA 134                 
1 25019U 97065A   26185.12855789 -.00000055  00000+0  00000+0 0  9990
2 25019  12.8029  21.5904 0002467 344.9001 209.4956  1.00271697 33129
INMARSAT 3-F5           
1 25153U 98006B   26185.16432610 -.00000283  00000+0  00000+0 0  9996
2 25153   9.7284  53.0878 0004136  51.1136 183.1494  1.00269705104061
ABS-6                   
1 25924U 99053A   26185.18245674 -.00000108  00000+0  00000+0 0  9995
2 25924   0.0372 279.2538 0003007 163.1252  64.4958  1.00271832 98010
UFO 10 (USA 146)        
1 25967U 99063A   26184.36220194 -.00000181  00000+0  00000+0 0  9993
2 25967   9.8455  27.1245 0002084  90.6970 270.9591  1.00274578 97517
ASIASTAR                
1 26107U 00016A   26185.10043166 -.00000325  00000+0  00000+0 0  9995
2 26107   9.1662  57.9707 0004433  46.6677 318.6207  1.00268745 96091
USA 149 (DSP 20)        
1 26356U 00024A   26185.18956343  .00000103  00000+0  00000+0 0  9991
2 26356  13.1824  11.7258 0001314 309.3793 224.3598  1.00282702 33089
TDRS 8                  
1 26388U 00034A   26185.09635831 -.00000189  00000+0  00000+0 0  9998
2 26388  12.7098  31.1772 0004504  28.0509 342.3755  1.00274464 95353
NSS-11                  
1 26554U 00059A   26185.18583675  .00000036  00000+0  00000+0 0  9998
2 26554   2.1677  81.1977 0003031  20.7871  63.1110  1.00271889 41465
USA 153                 
1 26575U 00065A   26184.87368343 -.00000318  00000+0  00000+0 0  9990
2 26575  11.6521  35.2782 0002327  53.3390 282.1608  1.00276247 33098
AMC-6                   
1 26580U 00067A   26185.19553128  .00000100  00000+0  00000+0 0  9999
2 26580   0.1928  83.5281 0003951  29.5137 104.5314  1.00270683 94069
USA 157 (MILSTAR-2 2)   
1 26715U 01009A   26184.69347519  .00000117  00000+0  00000+0 0  9993
2 26715  11.5596  19.6559 0040112 178.3312 183.3039  1.00270118 33113
INTELSAT 902 (IS-902)   
1 26900U 01039A   26185.14099701 -.00000274  00000+0  00000+0 0  9995
2 26900   6.1589  71.5754 0004288  29.8464 181.3792  1.00271305 90865
USA 164 (MILSTAR-2 3)   
1 27168U 02001A   26185.22598403  .00000105  00000+0  00000+0 0  9996
2 27168  11.1986  21.7973 0098969   8.9568 351.7637  1.00273637 33128
INTELSAT 904 (IS-904)   
1 27380U 02007A   26185.17261547 -.00000217  00000+0  00000+0 0  9993
2 27380   6.9595  68.9807 0006133  17.8107 226.0553  1.00270910 51932
DIRECTV 5 (TEMPO 1)     
1 27426U 02023A   26184.39558781 -.00000048  00000+0  00000+0 0  9996
2 27426   4.9166  75.1124 0003513  37.3501 201.2642  1.00271698 88287
INTELSAT 905 (IS-905)   
1 27438U 02027A   26184.76737028  .00000102  00000+0  00000+0 0  9997
2 27438   6.7923  69.6006 0003943  36.2187 315.0202  1.00272678 51525
GALAXY 3C (G-3C)        
1 27445U 02030A   26185.20341797 -.00000142  00000+0  00000+0 0  9998
2 27445   3.7740  77.7603 0001847  31.6931 151.1713  1.00271750 46662
INTELSAT 906 (IS-906)   
1 27513U 02041A   26185.23491074  .00000023  00000+0  00000+0 0  9990
2 27513   5.8447  72.7112 0004048  12.2630 345.9757  1.00270893 87193
